#aV2021  4 29  0  0  0.00000000     288 DD+AD WGS84 FIT  NGA
## 2155 345600.00000000   300.00000000 59333 0.0000000000000
+   31     1  2  3  4  5  6  7  8  9 10 12 13 14 15 16 17 18
+         19 20 21 22 23 24 25 26 27 28 29 30 31 32  0  0  0
+          0  0  0  0  0  0  0  0  0  0  0  0  0  0  0  0  0
+          0  0  0  0  0  0  0  0  0  0  0  0  0  0  0  0  0
+          0  0  0  0  0  0  0  0  0  0  0  0  0  0  0  0  0
++         2  2  2  2  2  2  2  2  2  2  2  2  2  2  2  2  2
++         2  2  2  2  2  2  2  2  2  2  2  2  2  2  0  0  0
++         0  0  0  0  0  0  0  0  0  0  0  0  0  0  0  0  0
++         0  0  0  0  0  0  0  0  0  0  0  0  0  0  0  0  0
++         0  0  0  0  0  0  0  0  0  0  0  0  0  0  0  0  0
%c cc cc ccc ccc cccc cccc cccc cccc ccccc ccccc ccccc ccccc
%c cc cc ccc ccc cccc cccc cccc cccc ccccc ccccc ccccc ccccc
%f  0.0000000  0.000000000  0.00000000000  0.000000000000000
%f  0.0000000  0.000000000  0.00000000000  0.000000000000000
%i    0    0    0    0      0      0      0      0         0
%i    0    0    0    0      0      0      0      0         0
/*      NGA, ST. LOUIS,MO.                                  
/*   EPHEMERIS COMPUTED FROM 2 DAYS OF DATA                 
/*   EPOCHA v6 SMOOTHER                                     
/*   G2139 IERS2010 SATIGS SATAPC                           
*  2021  4 29  6 45  0.00000000
P  1 -13403.603727   8499.853535  20972.062533    703.483325                    
V  1  -2590.731526 -27125.525753   9562.729734     -0.104513                    
P  2  13265.915860  16509.602749 -15345.738168   -599.856456                    
V  2    936.366540  20782.890324  22281.151573     -0.033180                    
P  3 -23074.897438  12342.732997   4093.544225   -149.965139                    
V  3   2904.991480  -5165.392541  31437.699283     -0.104770                    
P  4 -20594.307783   2359.476265 -16631.518259   -194.092154                    
V  4 -17872.359389 -11380.973352  20449.897328     -0.017271                    
P  5  20327.406707    236.123180 -17344.082899    -40.449784                    
V  5 -16459.498965  14191.069064 -19084.355606     -0.011128                    
P  6   6337.688657  24845.978101  -6747.744788     11.083705                    
V  6  -1399.659321   8767.491154  30754.425454      0.032690                    
P  7  -7835.803373  21326.395822 -12992.410381    136.196486                    
V  7  -4060.025636 -17041.505377 -25354.126839      0.111425                    
P  8 -24667.159297  -4295.131146   9299.266302    -19.262755                    
V  8  -9755.521139  -6832.194664 -28706.958485     -0.014234                    
P  9 -11339.881940  11375.185789 -21217.167106   -342.197747                    
V  9 -24107.841420 -11779.933992   6563.810320     -0.025520                    
P 10   3597.106140 -18271.301686  18950.490688   -111.647960                    
V 10  20490.774590 -12364.516614 -16168.433732     -0.077086                    
P 12  24013.213721  -9118.187970   6199.259993    -34.181289                    
V 12  -5860.698714   6276.170101  30821.203352     -0.051328                    
P 13  23024.789895  13156.861175   2328.804680    125.710814                    
V 13   1241.571105   3771.615939 -31646.082205      0.046413                    
P 14  -5179.806748  18434.022801  18386.074858     91.872430                    
V 14 -20713.965453  10972.757757 -16850.460870     -0.039261                    
P 15  25031.322865   1628.588102   8884.735977   -152.915848                    
V 15  10012.340366   6936.793805 -27975.224971      0.026018                    
P 16 -17812.826958  -5179.800212 -19426.193947   -317.119859                    
V 16  20502.109598 -12415.541104 -15238.484515     -0.059765                    
P 17   5184.346942  17772.109067  19470.053880    434.147462                    
V 17 -21212.040269 -10754.164480  15814.505265      0.061804                    
P 18   5688.206148 -23863.928096 -10107.283640    351.314218                    
V 18   3024.758685  12688.680808 -28340.336210     -0.004764                    
P 19  13613.614299  18629.139269  12965.008449     -6.693137                    
V 19 -15268.069743  -7361.337647  25929.465272      0.049931                    
P 20  21525.674190 -14193.301336  -5628.224666    522.699952                    
V 20  -2809.218994   7601.000831 -30320.001416     -0.003878                    
P 21 -15769.796066   -143.738746  22117.423346    114.487184                    
V 21  -3896.553696 -26089.592520  -2573.220160      0.027475                    
P 22 -22264.147642   5854.895996  13274.432737   -626.739155                    
V 22  10894.121170 -12972.674628  24538.720794      0.090758                    
P 23  14146.432891 -19590.844272  10950.915741    110.554615                    
V 23  12716.131482  -6212.548178 -27536.402167     -0.026138                    
P 24  15371.532184  -2921.910763  21209.090607     43.852338                    
V 24   4266.144704  27286.388258   1051.488973      0.273945                    
P 25  18952.340183 -17640.074593  -5492.495924    127.605814                    
V 25   7167.061303  -1383.256615  30910.013397      0.071768                    
P 26 -10212.323393 -11888.133656 -21508.258086     78.560859                    
V 26  21803.678157 -16325.168281  -1066.702554      0.050823                    
P 27 -23522.060137 -12664.753998  -1803.469361   -121.166402                    
V 27   2717.928666   -920.054921 -31736.162198     -0.067045                    
P 28  -1273.832834  17016.214747  20959.313323    579.407359                    
V 28 -22428.973624  11681.240137 -10951.795050     -0.059822                    
P 29  11696.534982  -9941.567258 -21728.924338   -338.261333                    
V 29  23573.994859  13971.694176   6267.741460     -0.065717                    
P 30    627.832572  26406.966473   -923.850963   -419.288025                    
V 30  -3817.599915  -1064.744989 -31350.125934     -0.051123                    
P 31  -7959.121980 -23216.655507  -9623.037474   -114.348204                    
V 31   2372.388167 -12392.026295  28631.469668     -0.022065                    
P 32  -8381.935022 -17917.588554  17914.271482     21.886070                    
V 32  20983.557449   8201.728589  17963.619807     -0.003378                    
EOF
